NORAD_CAT_ID,OBJECT_NAME,OBJECT_TYPE,EPOCH,MEAN_MOTION,ECCENTRICITY,INCLINATION,RA_OF_ASC_NODE,ARG_OF_PERICENTER,MEAN_ANOMALY,BSTAR,MEAN_MOTION_DOT,MEAN_MOTION_DDOT,TLE_LINE0,TLE_LINE1,TLE_LINE2,SEMIMAJOR_AXIS,PERIOD,APOGEE,PERIGEE,DECAYED
55938.0,STARLINK-5909,PAYLOAD,2024-08-19 09:21:10,14.98332121,0.0002875,69.9989,274.841,265.8486,94.2344,4.5235e-05,4.47e-06,0.0,0 STARLINK-5909,1 55938U 23037AA  24232.38970612  .00000447  00000-0  45235-4 0  9992,2 55938  69.9989 274.8410 0002875 265.8486  94.2344 14.98332121 79005,6950.186,96.107,574.05,570.053,0.0
55938.0,STARLINK-5909,PAYLOAD,2024-08-20 04:34:47,14.98332465,0.0003121,69.9979,272.8206,269.6775,90.4027,0.00010406,1.149e-05,0.0,0 STARLINK-5909,1 55938U 23037AA  24233.19082508  .00001149  00000-0  10406-3 0  9991,2 55938  69.9979 272.8206 0003121 269.6775  90.4027 14.98332465 79460,6950.185,96.107,574.219,569.881,0.0
55938.0,STARLINK-5909,PAYLOAD,2024-08-20 12:35:27,14.98337816,0.000314,69.9979,271.9789,268.8623,91.2177,0.00011368,1.264e-05,0.0,0 STARLINK-5909,1 55938U 23037AA  24233.52462102  .00001264  00000-0  11368-3 0  9996,2 55938  69.9979 271.9789 0003140 268.8623  91.2177 14.98337816 79178,6950.169,96.106,574.216,569.851,0.0
55938.0,STARLINK-5909,PAYLOAD,2024-08-21 04:36:48,14.9832772,0.0003086,69.9979,270.2952,267.5744,92.5062,0.00013067,1.466e-05,0.0,0 STARLINK-5909,1 55938U 23037AA  24234.19222684  .00001466  00000-0  13067-3 0  9991,2 55938  69.9979 270.2952 0003086 267.5744  92.5062 14.98327720 79610,6950.2,96.107,574.21,569.92,0.0
55938.0,STARLINK-5909,PAYLOAD,2024-08-21 12:37:28,14.9833028,0.0003087,69.998,269.4538,268.5112,91.5694,9.9485e-05,1.094e-05,0.0,0 STARLINK-5909,1 55938U 23037AA  24234.52602617  .00001094  00000-0  99485-4 0  9992,2 55938  69.9980 269.4538 0003087 268.5112  91.5694 14.98330280 79326,6950.192,96.107,574.203,569.912,0.0
